{
  "norad_id": 67007,
  "name": "STARLINK-36123",
  "history": [
    {
      "epoch": "2026-03-28T22:31:26.721408Z",
      "apogee_km": 574.1213382045762,
      "perigee_km": 569.948454997857,
      "latitude_deg": -1.4471256544068479e-05,
      "longitude_deg": -118.3933118563928,
      "height_km": 574.5166310400839,
      "semi_major_axis_km": 6950.171896601216,
      "eccentricity": 0.0003002,
      "inclination_deg": 70.0012,
      "raan_deg": 45.8198,
      "arg_perigee_deg": 268.5121,
      "mean_anomaly_deg": 91.5694,
      "mean_motion_rev_day": 14.98336789
    },
    {
      "epoch": "2026-03-29T04:55:58.863360Z",
      "apogee_km": 574.0933665633574,
      "perigee_km": 569.9441235835484,
      "latitude_deg": -1.3560874124610063e-05,
      "longitude_deg": 144.53625842014964,
      "height_km": 574.5081827002401,
      "semi_major_axis_km": 6950.155745073453,
      "eccentricity": 0.0002985,
      "inclination_deg": 70.0014,
      "raan_deg": 45.1465,
      "arg_perigee_deg": 268.2909,
      "mean_anomaly_deg": 91.7908,
      "mean_motion_rev_day": 14.98342012
    },
    {
      "epoch": "2026-03-30T03:21:51.847488Z",
      "apogee_km": 574.0466216490904,
      "perigee_km": 570.0266412206674,
      "latitude_deg": 3.2309741350073044e-05,
      "longitude_deg": 164.78718416230166,
      "height_km": 574.4855481203327,
      "semi_major_axis_km": 6950.173631434878,
      "eccentricity": 0.0002892,
      "inclination_deg": 70.0019,
      "raan_deg": 42.7894,
      "arg_perigee_deg": 269.3892,
      "mean_anomaly_deg": 90.6936,
      "mean_motion_rev_day": 14.98336228
    },
    {
      "epoch": "2026-03-30T04:57:59.926176Z",
      "apogee_km": 574.1830933074498,
      "perigee_km": 569.8983087547631,
      "latitude_deg": 1.6354884211176977e-05,
      "longitude_deg": 140.51981543850508,
      "height_km": 574.4903396031344,
      "semi_major_axis_km": 6950.177701031106,
      "eccentricity": 0.00030825,
      "inclination_deg": 70.0018,
      "raan_deg": 42.6215,
      "arg_perigee_deg": 269.4125,
      "mean_anomaly_deg": 90.6681,
      "mean_motion_rev_day": 14.98334912
    },
    {
      "epoch": "2026-03-30T06:34:07.934880Z",
      "apogee_km": 574.183405889271,
      "perigee_km": 569.8617966492029,
      "latitude_deg": 2.089677068859743e-05,
      "longitude_deg": 116.25274653175542,
      "height_km": 574.4313212525227,
      "semi_major_axis_km": 6950.159601269237,
      "eccentricity": 0.0003109,
      "inclination_deg": 70.0018,
      "raan_deg": 42.4536,
      "arg_perigee_deg": 270.5032,
      "mean_anomaly_deg": 89.5771,
      "mean_motion_rev_day": 14.98340765
    },
    {
      "epoch": "2026-03-30T20:59:20.633568Z",
      "apogee_km": 574.1181585192671,
      "perigee_km": 569.9609799061582,
      "latitude_deg": -1.4838840668091786e-05,
      "longitude_deg": -102.15859323541373,
      "height_km": 574.6087602605329,
      "semi_major_axis_km": 6950.176569212712,
      "eccentricity": 0.00029907,
      "inclination_deg": 70.0025,
      "raan_deg": 40.9374,
      "arg_perigee_deg": 266.0953,
      "mean_anomaly_deg": 93.9864,
      "mean_motion_rev_day": 14.98335278
    },
    {
      "epoch": "2026-03-31T21:01:21.620352Z",
      "apogee_km": 574.0370427999787,
      "perigee_km": 570.0406916763168,
      "latitude_deg": 3.047904133412725e-05,
      "longitude_deg": -106.17421224397413,
      "height_km": 574.4169656467802,
      "semi_major_axis_km": 6950.1758672381475,
      "eccentricity": 0.0002875,
      "inclination_deg": 70.0028,
      "raan_deg": 38.4129,
      "arg_perigee_deg": 271.4174,
      "mean_anomaly_deg": 88.6656,
      "mean_motion_rev_day": 14.98335505
    },
    {
      "epoch": "2026-04-01T21:03:22.524192Z",
      "apogee_km": 574.0870633902096,
      "perigee_km": 569.9920193720282,
      "latitude_deg": 5.064684202085424e-05,
      "longitude_deg": -110.18939392787765,
      "height_km": 574.4479932872467,
      "semi_major_axis_km": 6950.176541381119,
      "eccentricity": 0.0002946,
      "inclination_deg": 70.003,
      "raan_deg": 35.8885,
      "arg_perigee_deg": 270.5362,
      "mean_anomaly_deg": 89.546,
      "mean_motion_rev_day": 14.98335287
    },
    {
      "epoch": "2026-04-02T21:05:24.293760Z",
      "apogee_km": 574.1709410355033,
      "perigee_km": 569.9035340536511,
      "latitude_deg": 7.079176548669533e-05,
      "longitude_deg": -114.20879318726354,
      "height_km": 574.4487436319783,
      "semi_major_axis_km": 6950.1742375445765,
      "eccentricity": 0.000307,
      "inclination_deg": 70.003,
      "raan_deg": 33.3635,
      "arg_perigee_deg": 270.4358,
      "mean_anomaly_deg": 89.645,
      "mean_motion_rev_day": 14.98336032
    },
    {
      "epoch": "2026-04-02T22:41:32.577216Z",
      "apogee_km": 574.301394301333,
      "perigee_km": 569.8204626928737,
      "latitude_deg": -7.060573807039645e-05,
      "longitude_deg": -138.47726287817582,
      "height_km": 574.4313508562907,
      "semi_major_axis_km": 6950.197928497103,
      "eccentricity": 0.00032236,
      "inclination_deg": 70.0028,
      "raan_deg": 33.1954,
      "arg_perigee_deg": 271.4692,
      "mean_anomaly_deg": 88.6097,
      "mean_motion_rev_day": 14.98328371
    },
    {
      "epoch": "2026-04-03T21:07:25.303872Z",
      "apogee_km": 574.0004925663588,
      "perigee_km": 570.0305654417925,
      "latitude_deg": 2.0875107541742183e-05,
      "longitude_deg": -118.2225454862695,
      "height_km": 574.4498100151205,
      "semi_major_axis_km": 6950.152529004075,
      "eccentricity": 0.0002856,
      "inclination_deg": 70.0036,
      "raan_deg": 30.841,
      "arg_perigee_deg": 269.8066,
      "mean_anomaly_deg": 90.2766,
      "mean_motion_rev_day": 14.98343052
    },
    {
      "epoch": "2026-04-04T21:09:25.804224Z",
      "apogee_km": 573.9134155592292,
      "perigee_km": 570.1186320082434,
      "latitude_deg": 6.567043031932337e-05,
      "longitude_deg": -122.2388345571626,
      "height_km": 574.3948080405388,
      "semi_major_axis_km": 6950.153023783736,
      "eccentricity": 0.000273,
      "inclination_deg": 70.0036,
      "raan_deg": 28.3138,
      "arg_perigee_deg": 271.4694,
      "mean_anomaly_deg": 88.6153,
      "mean_motion_rev_day": 14.98342892
    },
    {
      "epoch": "2026-04-05T13:10:46.169472Z",
      "apogee_km": 574.0866058494594,
      "perigee_km": 569.9479279865946,
      "latitude_deg": 7.476400053516122e-06,
      "longitude_deg": -4.9138253664086875,
      "height_km": 574.4034417007169,
      "semi_major_axis_km": 6950.154266918027,
      "eccentricity": 0.00029774,
      "inclination_deg": 70.0033,
      "raan_deg": 26.6317,
      "arg_perigee_deg": 271.1491,
      "mean_anomaly_deg": 88.9327,
      "mean_motion_rev_day": 14.9834249
    },
    {
      "epoch": "2026-04-05T19:35:18.334752Z",
      "apogee_km": 574.0841477149061,
      "perigee_km": 569.9557544859526,
      "latitude_deg": 2.5445166518628846e-05,
      "longitude_deg": -101.98434694112268,
      "height_km": 574.421293331409,
      "semi_major_axis_km": 6950.156951100429,
      "eccentricity": 0.000297,
      "inclination_deg": 70.0033,
      "raan_deg": 25.9584,
      "arg_perigee_deg": 270.7307,
      "mean_anomaly_deg": 89.3512,
      "mean_motion_rev_day": 14.98341622
    }
  ]
}